SORCE                   
1 27651U 03004A   26068.43340162  .00003920  00000+0  29573-3 0  9995
2 27651  39.9899 110.5611 0015930  53.0009 307.2241 15.03094555256885
STARLINK-35001          
1 65280U 25184H   26068.70070502  .00001398  00000+0  10110-3 0  9990
2 65280  97.6036 122.6897 0000768 108.4244 251.7066 15.05647396 31303
