[{"OBJECT_NAME":"SORCE","OBJECT_ID":"2003-004A","EPOCH":"2026-03-09T10:24:05.899968","MEAN_MOTION":15.03094555,"ECCENTRICITY":0.00159303,"INCLINATION":39.9899,"RA_OF_ASC_NODE":110.5611,"ARG_OF_PERICENTER":53.0009,"MEAN_ANOMALY":307.2241,"EPHEMERIS_TYPE":0,"CLASSIFICATION_TYPE":"U","NORAD_CAT_ID":27651,"ELEMENT_SET_NO":999,"REV_AT_EPOCH":25688,"BSTAR":0.00029572763,"MEAN_MOTION_DOT":3.92e-5,"MEAN_MOTION_DDOT":0},{"OBJECT_NAME":"STARLINK-35001","OBJECT_ID":"2025-184H","EPOCH":"2026-03-09T16:49:00.914592","MEAN_MOTION":15.05647396,"ECCENTRICITY":7.678e-5,"INCLINATION":97.6036,"RA_OF_ASC_NODE":122.6897,"ARG_OF_PERICENTER":108.4244,"MEAN_ANOMALY":251.7066,"EPHEMERIS_TYPE":0,"CLASSIFICATION_TYPE":"U","NORAD_CAT_ID":65280,"ELEMENT_SET_NO":999,"REV_AT_EPOCH":3130,"BSTAR":0.00010110195,"MEAN_MOTION_DOT":1.398e-5,"MEAN_MOTION_DDOT":0}]
